[{"OBJECT_NAME":"ONEWEB-0711","OBJECT_ID":"2023-004AL","EPOCH":"2026-03-07T11:19:34.820256","MEAN_MOTION":13.11414783,"ECCENTRICITY":0.00018508,"INCLINATION":87.8865,"RA_OF_ASC_NODE":41.2885,"ARG_OF_PERICENTER":59.6114,"MEAN_ANOMALY":300.5196,"EPHEMERIS_TYPE":0,"CLASSIFICATION_TYPE":"U","NORAD_CAT_ID":55174,"ELEMENT_SET_NO":999,"REV_AT_EPOCH":15250,"BSTAR":4.6263645e-5,"MEAN_MOTION_DOT":2.9e-7,"MEAN_MOTION_DDOT":0},{"OBJECT_NAME":"ONEWEB-0713","OBJECT_ID":"2023-004AM","EPOCH":"2026-03-07T11:46:25.474368","MEAN_MOTION":13.11416421,"ECCENTRICITY":0.00018286,"INCLINATION":87.8866,"RA_OF_ASC_NODE":41.2843,"ARG_OF_PERICENTER":70.4652,"MEAN_ANOMALY":289.6674,"EPHEMERIS_TYPE":0,"CLASSIFICATION_TYPE":"U","NORAD_CAT_ID":55175,"ELEMENT_SET_NO":999,"REV_AT_EPOCH":15249,"BSTAR":-0.0014709503,"MEAN_MOTION_DOT":-5.09e-6,"MEAN_MOTION_DDOT":0},{"OBJECT_NAME":"ONEWEB-0715","OBJECT_ID":"2023-004AN","EPOCH":"2026-03-07T11:39:06.228000","MEAN_MOTION":13.11415283,"ECCENTRICITY":0.00025437,"INCLINATION":87.886,"RA_OF_ASC_NODE":41.2856,"ARG_OF_PERICENTER":81.3317,"MEAN_ANOMALY":278.8099,"EPHEMERIS_TYPE":0,"CLASSIFICATION_TYPE":"U","NORAD_CAT_ID":55176,"ELEMENT_SET_NO":999,"REV_AT_EPOCH":15253,"BSTAR":-0.0012796278,"MEAN_MOTION_DOT":-4.41e-6,"MEAN_MOTION_DDOT":0},{"OBJECT_NAME":"ONEWEB-0716","OBJECT_ID":"2023-004AP","EPOCH":"2026-03-07T14:16:00.531840","MEAN_MOTION":13.17649101,"ECCENTRICITY":0.00017225,"INCLINATION":87.9145,"RA_OF_ASC_NODE":26.0414,"ARG_OF_PERICENTER":87.3664,"MEAN_ANOMALY":272.7665,"EPHEMERIS_TYPE":0,"CLASSIFICATION_TYPE":"U","NORAD_CAT_ID":55177,"ELEMENT_SET_NO":999,"REV_AT_EPOCH":15420,"BSTAR":0.00026930296,"MEAN_MOTION_DOT":1.17e-6,"MEAN_MOTION_DDOT":0},{"OBJECT_NAME":"ONEWEB-0717","OBJECT_ID":"2023-004AQ","EPOCH":"2026-03-07T13:51:41.630688","MEAN_MOTION":13.17649332,"ECCENTRICITY":0.00020192,"INCLINATION":87.9157,"RA_OF_ASC_NODE":26.0244,"ARG_OF_PERICENTER":61.0123,"MEAN_ANOMALY":299.1211,"EPHEMERIS_TYPE":0,"CLASSIFICATION_TYPE":"U","NORAD_CAT_ID":55178,"ELEMENT_SET_NO":999,"REV_AT_EPOCH":15425,"BSTAR":0.00027908884,"MEAN_MOTION_DOT":1.21e-6,"MEAN_MOTION_DDOT":0},{"OBJECT_NAME":"ONEWEB-0719","OBJECT_ID":"2023-004AR","EPOCH":"2026-03-07T10:27:33.763680","MEAN_MOTION":13.17651631,"ECCENTRICITY":0.00016519,"INCLINATION":87.9156,"RA_OF_ASC_NODE":26.0337,"ARG_OF_PERICENTER":83.1171,"MEAN_ANOMALY":277.0148,"EPHEMERIS_TYPE":0,"CLASSIFICATION_TYPE":"U","NORAD_CAT_ID":55179,"ELEMENT_SET_NO":999,"REV_AT_EPOCH":15418,"BSTAR":8.2844982e-5,"MEAN_MOTION_DOT":4.5e-7,"MEAN_MOTION_DDOT":0},{"OBJECT_NAME":"ONEWEB-0530","OBJECT_ID":"2023-029A","EPOCH":"2026-03-07T15:39:01.717344","MEAN_MOTION":13.20772691,"ECCENTRICITY":0.00014194,"INCLINATION":87.9166,"RA_OF_ASC_NODE":294.7521,"ARG_OF_PERICENTER":65.9138,"MEAN_ANOMALY":294.2144,"EPHEMERIS_TYPE":0,"CLASSIFICATION_TYPE":"U","NORAD_CAT_ID":55796,"ELEMENT_SET_NO":999,"REV_AT_EPOCH":14774,"BSTAR":0.00016957896,"MEAN_MOTION_DOT":8.2e-7,"MEAN_MOTION_DDOT":0},{"OBJECT_NAME":"ONEWEB-0534","OBJECT_ID":"2023-029B","EPOCH":"2026-03-07T15:20:51.079776","MEAN_MOTION":13.20772185,"ECCENTRICITY":0.00015418,"INCLINATION":87.9162,"RA_OF_ASC_NODE":294.7536,"ARG_OF_PERICENTER":88.4839,"MEAN_ANOMALY":271.6471,"EPHEMERIS_TYPE":0,"CLASSIFICATION_TYPE":"U","NORAD_CAT_ID":55797,"ELEMENT_SET_NO":999,"REV_AT_EPOCH":14774,"BSTAR":1.6632691e-5,"MEAN_MOTION_DOT":2.0e-7,"MEAN_MOTION_DDOT":0},{"OBJECT_NAME":"ONEWEB-0556","OBJECT_ID":"2023-029C","EPOCH":"2026-03-07T15:29:56.869440","MEAN_MOTION":13.20771564,"ECCENTRICITY":7.846e-5,"INCLINATION":87.9164,"RA_OF_ASC_NODE":294.7544,"ARG_OF_PERICENTER":111.2332,"MEAN_ANOMALY":248.8885,"EPHEMERIS_TYPE":0,"CLASSIFICATION_TYPE":"U","NORAD_CAT_ID":55798,"ELEMENT_SET_NO":999,"REV_AT_EPOCH":14774,"BSTAR":1.4073357e-5,"MEAN_MOTION_DOT":1.9e-7,"MEAN_MOTION_DDOT":0},{"OBJECT_NAME":"ONEWEB-0562","OBJECT_ID":"2023-029D","EPOCH":"2026-03-07T15:11:45.480192","MEAN_MOTION":13.20772164,"ECCENTRICITY":9.954e-5,"INCLINATION":87.9164,"RA_OF_ASC_NODE":294.7369,"ARG_OF_PERICENTER":51.9099,"MEAN_ANOMALY":308.2124,"EPHEMERIS_TYPE":0,"CLASSIFICATION_TYPE":"U","NORAD_CAT_ID":55799,"ELEMENT_SET_NO":999,"REV_AT_EPOCH":14774,"BSTAR":-7.4410083e-5,"MEAN_MOTION_DOT":-1.7e-7,"MEAN_MOTION_DDOT":0},{"OBJECT_NAME":"ONEWEB-0563","OBJECT_ID":"2023-029E","EPOCH":"2026-03-07T15:02:39.838272","MEAN_MOTION":13.20772302,"ECCENTRICITY":0.00015467,"INCLINATION":87.9163,"RA_OF_ASC_NODE":294.7686,"ARG_OF_PERICENTER":99.0888,"MEAN_ANOMALY":261.042,"EPHEMERIS_TYPE":0,"CLASSIFICATION_TYPE":"U","NORAD_CAT_ID":55800,"ELEMENT_SET_NO":999,"REV_AT_EPOCH":14773,"BSTAR":-6.1429091e-5,"MEAN_MOTION_DOT":-1.2e-7,"MEAN_MOTION_DDOT":0},{"OBJECT_NAME":"ONEWEB-0564","OBJECT_ID":"2023-029F","EPOCH":"2026-03-07T14:53:34.602432","MEAN_MOTION":13.20772266,"ECCENTRICITY":0.00013602,"INCLINATION":87.9162,"RA_OF_ASC_NODE":294.7422,"ARG_OF_PERICENTER":70.9545,"MEAN_ANOMALY":289.1736,"EPHEMERIS_TYPE":0,"CLASSIFICATION_TYPE":"U","NORAD_CAT_ID":55801,"ELEMENT_SET_NO":999,"REV_AT_EPOCH":14774,"BSTAR":-0.000220391,"MEAN_MOTION_DOT":-7.7e-7,"MEAN_MOTION_DDOT":0},{"OBJECT_NAME":"ONEWEB-0638","OBJECT_ID":"2023-029G","EPOCH":"2026-03-07T14:57:58.340160","MEAN_MOTION":13.14503804,"ECCENTRICITY":0.00010408,"INCLINATION":87.8981,"RA_OF_ASC_NODE":310.0258,"ARG_OF_PERICENTER":79.4062,"MEAN_ANOMALY":280.7185,"EPHEMERIS_TYPE":0,"CLASSIFICATION_TYPE":"U","NORAD_CAT_ID":55802,"ELEMENT_SET_NO":999,"REV_AT_EPOCH":14605,"BSTAR":-0.00065482697,"MEAN_MOTION_DOT":-2.3e-6,"MEAN_MOTION_DDOT":0},{"OBJECT_NAME":"ONEWEB-0639","OBJECT_ID":"2023-029H","EPOCH":"2026-03-07T15:57:24.367968","MEAN_MOTION":13.19721413,"ECCENTRICITY":0.00023733,"INCLINATION":87.923,"RA_OF_ASC_NODE":325.204,"ARG_OF_PERICENTER":104.5479,"MEAN_ANOMALY":255.5918,"EPHEMERIS_TYPE":0,"CLASSIFICATION_TYPE":"U","NORAD_CAT_ID":55803,"ELEMENT_SET_NO":999,"REV_AT_EPOCH":14551,"BSTAR":0.0012538576,"MEAN_MOTION_DOT":5.15e-6,"MEAN_MOTION_DDOT":0},{"OBJECT_NAME":"ONEWEB-0640","OBJECT_ID":"2023-029J","EPOCH":"2026-03-07T15:11:39.841728","MEAN_MOTION":13.14501445,"ECCENTRICITY":0.0001076,"INCLINATION":87.898,"RA_OF_ASC_NODE":310.0141,"ARG_OF_PERICENTER":105.7348,"MEAN_ANOMALY":254.3901,"EPHEMERIS_TYPE":0,"CLASSIFICATION_TYPE":"U","NORAD_CAT_ID":55804,"ELEMENT_SET_NO":999,"REV_AT_EPOCH":14607,"BSTAR":-0.00053899398,"MEAN_MOTION_DOT":-1.87e-6,"MEAN_MOTION_DDOT":0},{"OBJECT_NAME":"ONEWEB-0641","OBJECT_ID":"2023-029K","EPOCH":"2026-03-07T10:23:02.408928","MEAN_MOTION":13.19726622,"ECCENTRICITY":0.00017436,"INCLINATION":87.9239,"RA_OF_ASC_NODE":325.2368,"ARG_OF_PERICENTER":84.7485,"MEAN_ANOMALY":275.3846,"EPHEMERIS_TYPE":0,"CLASSIFICATION_TYPE":"U","NORAD_CAT_ID":55805,"ELEMENT_SET_NO":999,"REV_AT_EPOCH":14549,"BSTAR":0.00037774051,"MEAN_MOTION_DOT":1.64e-6,"MEAN_MOTION_DDOT":0},{"OBJECT_NAME":"ONEWEB-0642","OBJECT_ID":"2023-029L","EPOCH":"2026-03-07T06:37:52.012416","MEAN_MOTION":13.19726565,"ECCENTRICITY":0.0002266,"INCLINATION":87.9232,"RA_OF_ASC_NODE":325.2828,"ARG_OF_PERICENTER":98.3474,"MEAN_ANOMALY":261.7915,"EPHEMERIS_TYPE":0,"CLASSIFICATION_TYPE":"U","NORAD_CAT_ID":55806,"ELEMENT_SET_NO":999,"REV_AT_EPOCH":14546,"BSTAR":0.00022229,"MEAN_MOTION_DOT":1.02e-6,"MEAN_MOTION_DDOT":0}]
