ONEWEB-0711             
1 55174U 23004AL  26066.47193079  .00000029  00000+0  46264-4 0  9997
2 55174  87.8865  41.2885 0001850  59.6114 300.5196 13.11414783152504
ONEWEB-0713             
1 55175U 23004AM  26066.49057262 -.00000509  00000+0 -14710-2 0  9997
2 55175  87.8866  41.2843 0001828  70.4652 289.6674 13.11416421152490
ONEWEB-0715             
1 55176U 23004AN  26066.48548875 -.00000441  00000+0 -12796-2 0  9999
2 55176  87.8860  41.2856 0002543  81.3317 278.8099 13.11415283152534
ONEWEB-0716             
1 55177U 23004AP  26066.59445060  .00000117  00000+0  26930-3 0  9998
2 55177  87.9145  26.0414 0001722  87.3664 272.7665 13.17649101154204
ONEWEB-0717             
1 55178U 23004AQ  26066.57756517  .00000121  00000+0  27909-3 0  9991
2 55178  87.9157  26.0244 0002019  61.0123 299.1211 13.17649332154259
ONEWEB-0719             
1 55179U 23004AR  26066.43580745  .00000045  00000+0  82845-4 0  9991
2 55179  87.9156  26.0337 0001651  83.1171 277.0148 13.17651631154182
ONEWEB-0530             
1 55796U 23029A   26066.65210321  .00000082  00000+0  16958-3 0  9999
2 55796  87.9166 294.7521 0001419  65.9138 294.2144 13.20772691147745
ONEWEB-0534             
1 55797U 23029B   26066.63948009  .00000020  00000+0  16633-4 0  9992
2 55797  87.9162 294.7536 0001541  88.4839 271.6471 13.20772185147742
ONEWEB-0556             
1 55798U 23029C   26066.64579710  .00000019  00000+0  14073-4 0  9997
2 55798  87.9164 294.7544 0000784 111.2332 248.8885 13.20771564147740
ONEWEB-0562             
1 55799U 23029D   26066.63316528 -.00000017  00000+0 -74410-4 0  9994
2 55799  87.9164 294.7369 0000995  51.9099 308.2124 13.20772164147744
ONEWEB-0563             
1 55800U 23029E   26066.62684998 -.00000012  00000+0 -61429-4 0  9996
2 55800  87.9163 294.7686 0001546  99.0888 261.0420 13.20772302147738
ONEWEB-0564             
1 55801U 23029F   26066.62053938 -.00000077  00000+0 -22039-3 0  9995
2 55801  87.9162 294.7422 0001360  70.9545 289.1736 13.20772266147749
ONEWEB-0638             
1 55802U 23029G   26066.62359190 -.00000230  00000+0 -65483-3 0  9996
2 55802  87.8981 310.0258 0001040  79.4062 280.7185 13.14503804146051
ONEWEB-0639             
1 55803U 23029H   26066.66486537  .00000515  00000+0  12539-2 0  9994
2 55803  87.9230 325.2040 0002373 104.5479 255.5918 13.19721413145516
ONEWEB-0640             
1 55804U 23029J   26066.63310002 -.00000187  00000+0 -53899-3 0  9997
2 55804  87.8980 310.0141 0001076 105.7348 254.3901 13.14501445146076
ONEWEB-0641             
1 55805U 23029K   26066.43266677  .00000164  00000+0  37774-3 0  9991
2 55805  87.9239 325.2368 0001743  84.7485 275.3846 13.19726622145490
ONEWEB-0642             
1 55806U 23029L   26066.27629644  .00000102  00000+0  22229-3 0  9992
2 55806  87.9232 325.2828 0002266  98.3474 261.7915 13.19726565145464
